{
    "links": {
        "self": "http://www.neowsapp.com/rest/v1/neo/3617079?api_key=iIulBulltgU6a56xZRHN4H3l9WmuAYTsLGpBGhQ2"
    },
    "id": "3617079",
    "neo_reference_id": "3617079",
    "name": "(2012 VF26)",
    "designation": "2012 VF26",
    "nasa_jpl_url": "http://ssd.jpl.nasa.gov/sbdb.cgi?sstr=3617079",
    "absolute_magnitude_h": 23.6,
    "estimated_diameter": {
        "kilometers": {
            "estimated_diameter_min": 0.0506471459,
            "estimated_diameter_max": 0.1132504611
        },
        "meters": {
            "estimated_diameter_min": 50.6471458835,
            "estimated_diameter_max": 113.2504610618
        },
        "miles": {
            "estimated_diameter_min": 0.0314706677,
            "estimated_diameter_max": 0.0703705522
        },
        "feet": {
            "estimated_diameter_min": 166.1651821003,
            "estimated_diameter_max": 371.5566426699
        }
    },
    "is_potentially_hazardous_asteroid": false,
    "close_approach_data": [
        {
            "close_approach_date": "2012-10-29",
            "close_approach_date_full": "2012-Oct-29 03:05",
            "epoch_date_close_approach": 1351479900000,
            "relative_velocity": {
                "kilometers_per_second": "5.8349556",
                "kilometers_per_hour": "21005.8401599443",
                "miles_per_hour": "13052.2121816054"
            },
            "miss_distance": {
                "astronomical": "0.1104799544",
                "lunar": "42.9767022616",
                "kilometers": "16527565.855937128",
                "miles": "10269753.2080952464"
            },
            "orbiting_body": "Earth"
        }
    ],
    "orbital_data": {
        "orbit_id": "18",
        "orbit_determination_date": "2017-04-06 08:48:07",
        "first_observation_date": "2012-11-07",
        "last_observation_date": "2012-12-13",
        "data_arc_in_days": 36,
        "observations_used": 60,
        "orbit_uncertainty": "7",
        "minimum_orbit_intersection": ".12451",
        "jupiter_tisserand_invariant": "3.254",
        "epoch_osculation": "2459000.5",
        "eccentricity": ".5492415274734908",
        "semi_major_axis": "2.472023144762389",
        "inclination": "3.735057936135431",
        "ascending_node_longitude": "58.37479256404457",
        "orbital_period": "1419.636725168785",
        "perihelion_distance": "1.114285376783272",
        "perihelion_argument": "340.8200467335321",
        "aphelion_distance": "3.829760912741505",
        "perihelion_time": "2459065.825822503650",
        "mean_anomaly": "343.4342859096449",
        "mean_motion": ".2535860009941617",
        "equinox": "J2000",
        "orbit_class": {
            "orbit_class_type": "AMO",
            "orbit_class_description": "Near-Earth asteroid orbits similar to that of 1221 Amor",
            "orbit_class_range": "1.017 AU < q (perihelion) < 1.3 AU"
        }
    },
    "is_sentry_object": false
}